STARLINK-35716          
1 67191U 25303AE  25351.60835648 -.00002699  85337-5  00000+0 0  9990
2 67191  43.0100  69.0834 0011500 323.6500   9.4800 16.01284782    11
STARLINK-36182          
1 67192U 25304A   26014.59403185  .00005676  00000+0  13281-3 0  9998
2 67192  70.0002 315.9790 0003227 266.5298  93.5515 15.42732407  5628
STARLINK-36279          
1 67193U 25304B   26014.58335648  .00030709  00000+0  70216-3 0  9992
2 67193  70.0003 315.8023 0003005 268.1506 212.6312 15.42698797  5747
STARLINK-36284          
1 67194U 25304C   26014.57782851  .00021423  00000+0  49101-3 0  9996
2 67194  70.0001 315.9201 0003081 267.3031  92.7799 15.42726105  5654
STARLINK-36291          
1 67195U 25304D   26014.58335648 -.03433077  00000+0 -81805-1 0  9998
2 67195  70.0008 315.7000 0002544 266.9405 301.8187 15.45689176  5744
STARLINK-36239          
1 67196U 25304E   26014.58593168  .00017245  00000+0  39609-3 0  9999
2 67196  70.0001 315.9490 0003289 265.9480  94.1326 15.42726606  5656
STARLINK-36283          
1 67197U 25304F   26014.58335648  .00029422  00000+0  67349-3 0  9999
2 67197  70.0002 315.7502 0003881 281.3575 244.4762 15.42673506  5749
STARLINK-36267          
1 67198U 25304G   26014.58335648  .00032210  00000+0  73616-3 0  9993
2 67198  70.0005 315.8530 0003620 269.3742 166.4070 15.42697955  5714
STARLINK-36268          
1 67199U 25304H   26014.41194761 -.00219923  00000+0 -38614-2 0  9993
2 67199  70.0006 316.1366 0002524 266.3788  93.7110 15.51115457  5636
STARLINK-36270          
1 67200U 25304J   26014.59007652  .00023492  00000+0  53787-3 0  9998
2 67200  70.0001 315.9639 0003177 274.0643  86.0176 15.42729778  5651
STARLINK-36262          
1 67201U 25304K   26014.58196893  .00008091  00000+0  18787-3 0  9993
2 67201  70.0001 315.9343 0003365 276.7097  83.3701 15.42724727  5658
STARLINK-36263          
1 67202U 25304L   26014.57386354  .00022037  00000+0  50483-3 0  9991
2 67202  70.0004 315.9048 0003202 274.5154  85.5662 15.42732206  5655
