CCSDS_OMM_VERS = 2.0
CREATION_DATE  = 
ORIGINATOR     = 

OBJECT_NAME    = STARLINK-35716
OBJECT_ID      = 2025-303AE
CENTER_NAME    = EARTH
REF_FRAME      = TEME
TIME_SYSTEM    = UTC
MEAN_ELEMENT_THEORY = SGP/SGP4

EPOCH          = 2025-12-17T14:36:01.999872
MEAN_MOTION    = 16.01284782
ECCENTRICITY   = .00115
INCLINATION    = 43.0100
RA_OF_ASC_NODE = 69.0834
ARG_OF_PERICENTER = 323.6500
MEAN_ANOMALY   = 9.4800

EPHEMERIS_TYPE = 0
CLASSIFICATION_TYPE = U
NORAD_CAT_ID   = 67191
ELEMENT_SET_NO = 999
REV_AT_EPOCH   = 1
BSTAR          = 0
MEAN_MOTION_DOT = -.2699E-4
MEAN_MOTION_DDOT = .8533731E-5

CCSDS_OMM_VERS = 2.0
CREATION_DATE  = 
ORIGINATOR     = 

OBJECT_NAME    = STARLINK-36182
OBJECT_ID      = 2025-304A
CENTER_NAME    = EARTH
REF_FRAME      = TEME
TIME_SYSTEM    = UTC
MEAN_ELEMENT_THEORY = SGP/SGP4

EPOCH          = 2026-01-14T14:15:24.351840
MEAN_MOTION    = 15.42732407
ECCENTRICITY   = .00032272
INCLINATION    = 70.0002
RA_OF_ASC_NODE = 315.9790
ARG_OF_PERICENTER = 266.5298
MEAN_ANOMALY   = 93.5515

EPHEMERIS_TYPE = 0
CLASSIFICATION_TYPE = U
NORAD_CAT_ID   = 67192
ELEMENT_SET_NO = 999
REV_AT_EPOCH   = 562
BSTAR          = .13281273E-3
MEAN_MOTION_DOT = .5676E-4
MEAN_MOTION_DDOT = 0

CCSDS_OMM_VERS = 2.0
CREATION_DATE  = 
ORIGINATOR     = 

OBJECT_NAME    = STARLINK-36279
OBJECT_ID      = 2025-304B
CENTER_NAME    = EARTH
REF_FRAME      = TEME
TIME_SYSTEM    = UTC
MEAN_ELEMENT_THEORY = SGP/SGP4

EPOCH          = 2026-01-14T14:00:01.999872
MEAN_MOTION    = 15.42698797
ECCENTRICITY   = .00030055
INCLINATION    = 70.0003
RA_OF_ASC_NODE = 315.8023
ARG_OF_PERICENTER = 268.1506
MEAN_ANOMALY   = 212.6312

EPHEMERIS_TYPE = 0
CLASSIFICATION_TYPE = U
NORAD_CAT_ID   = 67193
ELEMENT_SET_NO = 999
REV_AT_EPOCH   = 574
BSTAR          = .70215811E-3
MEAN_MOTION_DOT = .30709E-3
MEAN_MOTION_DDOT = 0

CCSDS_OMM_VERS = 2.0
CREATION_DATE  = 
ORIGINATOR     = 

OBJECT_NAME    = STARLINK-36284
OBJECT_ID      = 2025-304C
CENTER_NAME    = EARTH
REF_FRAME      = TEME
TIME_SYSTEM    = UTC
MEAN_ELEMENT_THEORY = SGP/SGP4

EPOCH          = 2026-01-14T13:52:04.383264
MEAN_MOTION    = 15.42726105
ECCENTRICITY   = .00030812
INCLINATION    = 70.0001
RA_OF_ASC_NODE = 315.9201
ARG_OF_PERICENTER = 267.3031
MEAN_ANOMALY   = 92.7799

EPHEMERIS_TYPE = 0
CLASSIFICATION_TYPE = U
NORAD_CAT_ID   = 67194
ELEMENT_SET_NO = 999
REV_AT_EPOCH   = 565
BSTAR          = .49100506E-3
MEAN_MOTION_DOT = .21423E-3
MEAN_MOTION_DDOT = 0

CCSDS_OMM_VERS = 2.0
CREATION_DATE  = 
ORIGINATOR     = 

OBJECT_NAME    = STARLINK-36291
OBJECT_ID      = 2025-304D
CENTER_NAME    = EARTH
REF_FRAME      = TEME
TIME_SYSTEM    = UTC
MEAN_ELEMENT_THEORY = SGP/SGP4

EPOCH          = 2026-01-14T14:00:01.999872
MEAN_MOTION    = 15.45689176
ECCENTRICITY   = .00025443
INCLINATION    = 70.0008
RA_OF_ASC_NODE = 315.7000
ARG_OF_PERICENTER = 266.9405
MEAN_ANOMALY   = 301.8187

EPHEMERIS_TYPE = 0
CLASSIFICATION_TYPE = U
NORAD_CAT_ID   = 67195
ELEMENT_SET_NO = 999
REV_AT_EPOCH   = 574
BSTAR          = -.81804534E-1
MEAN_MOTION_DOT = -.3433077E-1
MEAN_MOTION_DDOT = 0

CCSDS_OMM_VERS = 2.0
CREATION_DATE  = 
ORIGINATOR     = 

OBJECT_NAME    = STARLINK-36239
OBJECT_ID      = 2025-304E
CENTER_NAME    = EARTH
REF_FRAME      = TEME
TIME_SYSTEM    = UTC
MEAN_ELEMENT_THEORY = SGP/SGP4

EPOCH          = 2026-01-14T14:03:44.497152
MEAN_MOTION    = 15.42726606
ECCENTRICITY   = .00032894
INCLINATION    = 70.0001
RA_OF_ASC_NODE = 315.9490
ARG_OF_PERICENTER = 265.9480
MEAN_ANOMALY   = 94.1326

EPHEMERIS_TYPE = 0
CLASSIFICATION_TYPE = U
NORAD_CAT_ID   = 67196
ELEMENT_SET_NO = 999
REV_AT_EPOCH   = 565
BSTAR          = .39609344E-3
MEAN_MOTION_DOT = .17245E-3
MEAN_MOTION_DDOT = 0

CCSDS_OMM_VERS = 2.0
CREATION_DATE  = 
ORIGINATOR     = 

OBJECT_NAME    = STARLINK-36283
OBJECT_ID      = 2025-304F
CENTER_NAME    = EARTH
REF_FRAME      = TEME
TIME_SYSTEM    = UTC
MEAN_ELEMENT_THEORY = SGP/SGP4

EPOCH          = 2026-01-14T14:00:01.999872
MEAN_MOTION    = 15.42673506
ECCENTRICITY   = .00038819
INCLINATION    = 70.0002
RA_OF_ASC_NODE = 315.7502
ARG_OF_PERICENTER = 281.3575
MEAN_ANOMALY   = 244.4762

EPHEMERIS_TYPE = 0
CLASSIFICATION_TYPE = U
NORAD_CAT_ID   = 67197
ELEMENT_SET_NO = 999
REV_AT_EPOCH   = 574
BSTAR          = .67348577E-3
MEAN_MOTION_DOT = .29422E-3
MEAN_MOTION_DDOT = 0

CCSDS_OMM_VERS = 2.0
CREATION_DATE  = 
ORIGINATOR     = 

OBJECT_NAME    = STARLINK-36267
OBJECT_ID      = 2025-304G
CENTER_NAME    = EARTH
REF_FRAME      = TEME
TIME_SYSTEM    = UTC
MEAN_ELEMENT_THEORY = SGP/SGP4

EPOCH          = 2026-01-14T14:00:01.999872
MEAN_MOTION    = 15.42697955
ECCENTRICITY   = .00036206
INCLINATION    = 70.0005
RA_OF_ASC_NODE = 315.8530
ARG_OF_PERICENTER = 269.3742
MEAN_ANOMALY   = 166.4070

EPHEMERIS_TYPE = 0
CLASSIFICATION_TYPE = U
NORAD_CAT_ID   = 67198
ELEMENT_SET_NO = 999
REV_AT_EPOCH   = 571
BSTAR          = .73615771E-3
MEAN_MOTION_DOT = .3221E-3
MEAN_MOTION_DDOT = 0

CCSDS_OMM_VERS = 2.0
CREATION_DATE  = 
ORIGINATOR     = 

OBJECT_NAME    = STARLINK-36268
OBJECT_ID      = 2025-304H
CENTER_NAME    = EARTH
REF_FRAME      = TEME
TIME_SYSTEM    = UTC
MEAN_ELEMENT_THEORY = SGP/SGP4

EPOCH          = 2026-01-14T09:53:12.273504
MEAN_MOTION    = 15.51115457
ECCENTRICITY   = .00025244
INCLINATION    = 70.0006
RA_OF_ASC_NODE = 316.1366
ARG_OF_PERICENTER = 266.3788
MEAN_ANOMALY   = 93.7110

EPHEMERIS_TYPE = 0
CLASSIFICATION_TYPE = U
NORAD_CAT_ID   = 67199
ELEMENT_SET_NO = 999
REV_AT_EPOCH   = 563
BSTAR          = -.38614355E-2
MEAN_MOTION_DOT = -.219923E-2
MEAN_MOTION_DDOT = 0

CCSDS_OMM_VERS = 2.0
CREATION_DATE  = 
ORIGINATOR     = 

OBJECT_NAME    = STARLINK-36270
OBJECT_ID      = 2025-304J
CENTER_NAME    = EARTH
REF_FRAME      = TEME
TIME_SYSTEM    = UTC
MEAN_ELEMENT_THEORY = SGP/SGP4

EPOCH          = 2026-01-14T14:09:42.611328
MEAN_MOTION    = 15.42729778
ECCENTRICITY   = .00031776
INCLINATION    = 70.0001
RA_OF_ASC_NODE = 315.9639
ARG_OF_PERICENTER = 274.0643
MEAN_ANOMALY   = 86.0176

EPHEMERIS_TYPE = 0
CLASSIFICATION_TYPE = U
NORAD_CAT_ID   = 67200
ELEMENT_SET_NO = 999
REV_AT_EPOCH   = 565
BSTAR          = .53786576E-3
MEAN_MOTION_DOT = .23492E-3
MEAN_MOTION_DDOT = 0

CCSDS_OMM_VERS = 2.0
CREATION_DATE  = 
ORIGINATOR     = 

OBJECT_NAME    = STARLINK-36262
OBJECT_ID      = 2025-304K
CENTER_NAME    = EARTH
REF_FRAME      = TEME
TIME_SYSTEM    = UTC
MEAN_ELEMENT_THEORY = SGP/SGP4

EPOCH          = 2026-01-14T13:58:02.115552
MEAN_MOTION    = 15.42724727
ECCENTRICITY   = .00033657
INCLINATION    = 70.0001
RA_OF_ASC_NODE = 315.9343
ARG_OF_PERICENTER = 276.7097
MEAN_ANOMALY   = 83.3701

EPHEMERIS_TYPE = 0
CLASSIFICATION_TYPE = U
NORAD_CAT_ID   = 67201
ELEMENT_SET_NO = 999
REV_AT_EPOCH   = 565
BSTAR          = .1878671E-3
MEAN_MOTION_DOT = .8091E-4
MEAN_MOTION_DDOT = 0

CCSDS_OMM_VERS = 2.0
CREATION_DATE  = 
ORIGINATOR     = 

OBJECT_NAME    = STARLINK-36263
OBJECT_ID      = 2025-304L
CENTER_NAME    = EARTH
REF_FRAME      = TEME
TIME_SYSTEM    = UTC
MEAN_ELEMENT_THEORY = SGP/SGP4

EPOCH          = 2026-01-14T13:46:21.809856
MEAN_MOTION    = 15.42732206
ECCENTRICITY   = .00032022
INCLINATION    = 70.0004
RA_OF_ASC_NODE = 315.9048
ARG_OF_PERICENTER = 274.5154
MEAN_ANOMALY   = 85.5662

EPHEMERIS_TYPE = 0
CLASSIFICATION_TYPE = U
NORAD_CAT_ID   = 67202
ELEMENT_SET_NO = 999
REV_AT_EPOCH   = 565
BSTAR          = .5048283E-3
MEAN_MOTION_DOT = .22037E-3
MEAN_MOTION_DDOT = 0

